[
  {
    "OBJECT_NAME": "STARLINK-31532",
    "OBJECT_ID": "24060B",
    "EPOCH": "2025-11-11T02:01:11.408448",
    "MEAN_MOTION": 15.27601114,
    "ECCENTRICITY": 0.0001449,
    "INCLINATION": 43.0004,
    "RA_OF_ASC_NODE": 209.6824,
    "ARG_OF_PERICENTER": 283.1201,
    "MEAN_ANOMALY": 76.9489,
    "EPHEMERIS_TYPE": 0,
    "CLASSIFICATION_TYPE": "U",
    "NORAD_CAT_ID": 59349,
    "ELEMENT_SET_NO": 999,
    "REV_AT_EPOCH": 9197,
    "BSTAR": 0.00026012,
    "MEAN_MOTION_DOT": 6.907e-05,
    "MEAN_MOTION_DDOT": 0.0,
    "TLE_LINE1": "1 59349U 24060B   25315.08415982  .00006907  00000+0  26012-3 0  9990",
    "TLE_LINE2": "2 59349  43.0004 209.6824 0001449 283.1201  76.9489 15.27601114 91976",
    "COMMENT": "Grouped by shell and plane from TLE"
  },
  {
    "OBJECT_NAME": "STARLINK-31593",
    "OBJECT_ID": "24060C",
    "EPOCH": "2025-11-11T01:18:38.841408",
    "MEAN_MOTION": 15.27587255,
    "ECCENTRICITY": 8.71e-05,
    "INCLINATION": 42.9987,
    "RA_OF_ASC_NODE": 209.4615,
    "ARG_OF_PERICENTER": 342.9182,
    "MEAN_ANOMALY": 17.1641,
    "EPHEMERIS_TYPE": 0,
    "CLASSIFICATION_TYPE": "U",
    "NORAD_CAT_ID": 59350,
    "ELEMENT_SET_NO": 999,
    "REV_AT_EPOCH": 9192,
    "BSTAR": 0.00021984,
    "MEAN_MOTION_DOT": 5.794e-05,
    "MEAN_MOTION_DDOT": 0.0,
    "TLE_LINE1": "1 59350U 24060C   25315.05461622  .00005794  00000+0  21984-3 0  9997",
    "TLE_LINE2": "2 59350  42.9987 209.4615 0000871 342.9182  17.1641 15.27587255 91923",
    "COMMENT": "Grouped by shell and plane from TLE"
  },
  {
    "OBJECT_NAME": "STARLINK-31555",
    "OBJECT_ID": "24060D",
    "EPOCH": "2025-11-11T02:12:17.714880",
    "MEAN_MOTION": 15.27593971,
    "ECCENTRICITY": 3.36e-05,
    "INCLINATION": 43.0,
    "RA_OF_ASC_NODE": 209.7416,
    "ARG_OF_PERICENTER": 286.1122,
    "MEAN_ANOMALY": 73.9693,
    "EPHEMERIS_TYPE": 0,
    "CLASSIFICATION_TYPE": "U",
    "NORAD_CAT_ID": 59351,
    "ELEMENT_SET_NO": 999,
    "REV_AT_EPOCH": 9197,
    "BSTAR": 0.00016593,
    "MEAN_MOTION_DOT": 4.309e-05,
    "MEAN_MOTION_DDOT": 0.0,
    "TLE_LINE1": "1 59351U 24060D   25315.09187170  .00004309  00000+0  16593-3 0  9996",
    "TLE_LINE2": "2 59351  43.0000 209.7416 0000336 286.1122  73.9693 15.27593971 91977",
    "COMMENT": "Grouped by shell and plane from TLE"
  },
  {
    "OBJECT_NAME": "STARLINK-31561",
    "OBJECT_ID": "24060E",
    "EPOCH": "2025-11-11T02:49:05.771424",
    "MEAN_MOTION": 15.27563931,
    "ECCENTRICITY": 0.0001155,
    "INCLINATION": 43.0018,
    "RA_OF_ASC_NODE": 209.07,
    "ARG_OF_PERICENTER": 267.9293,
    "MEAN_ANOMALY": 92.1427,
    "EPHEMERIS_TYPE": 0,
    "CLASSIFICATION_TYPE": "U",
    "NORAD_CAT_ID": 59352,
    "ELEMENT_SET_NO": 999,
    "REV_AT_EPOCH": 9193,
    "BSTAR": 0.00013539999999999998,
    "MEAN_MOTION_DOT": 3.464e-05,
    "MEAN_MOTION_DDOT": 0.0,
    "TLE_LINE1": "1 59352U 24060E   25315.11742791  .00003464  00000+0  13540-3 0  9996",
    "TLE_LINE2": "2 59352  43.0018 209.0700 0001155 267.9293  92.1427 15.27563931 91939",
    "COMMENT": "Grouped by shell and plane from TLE"
  },
  {
    "OBJECT_NAME": "STARLINK-31413",
    "OBJECT_ID": "24060F",
    "EPOCH": "2025-11-11T01:35:17.005056",
    "MEAN_MOTION": 15.27589282,
    "ECCENTRICITY": 0.0001641,
    "INCLINATION": 43.0,
    "RA_OF_ASC_NODE": 209.5415,
    "ARG_OF_PERICENTER": 266.6147,
    "MEAN_ANOMALY": 93.4517,
    "EPHEMERIS_TYPE": 0,
    "CLASSIFICATION_TYPE": "U",
    "NORAD_CAT_ID": 59353,
    "ELEMENT_SET_NO": 999,
    "REV_AT_EPOCH": 9192,
    "BSTAR": 5.230900000000001e-05,
    "MEAN_MOTION_DOT": 1.178e-05,
    "MEAN_MOTION_DDOT": 0.0,
    "TLE_LINE1": "1 59353U 24060F   25315.06616904  .00001178  00000+0  52309-4 0  9994",
    "TLE_LINE2": "2 59353  43.0000 209.5415 0001641 266.6147  93.4517 15.27589282 91923",
    "COMMENT": "Grouped by shell and plane from TLE"
  },
  {
    "OBJECT_NAME": "STARLINK-31422",
    "OBJECT_ID": "24060G",
    "EPOCH": "2025-11-11T02:43:45.627456",
    "MEAN_MOTION": 15.27602197,
    "ECCENTRICITY": 0.0001708,
    "INCLINATION": 43.0043,
    "RA_OF_ASC_NODE": 209.9059,
    "ARG_OF_PERICENTER": 260.954,
    "MEAN_ANOMALY": 99.1119,
    "EPHEMERIS_TYPE": 0,
    "CLASSIFICATION_TYPE": "U",
    "NORAD_CAT_ID": 59354,
    "ELEMENT_SET_NO": 999,
    "REV_AT_EPOCH": 9192,
    "BSTAR": 0.0,
    "MEAN_MOTION_DOT": -2.912e-05,
    "MEAN_MOTION_DDOT": 0.0,
    "TLE_LINE1": "1 59354U 24060G   25315.11372254 -.00002912  00000+0 -96272-4 0  9994",
    "TLE_LINE2": "2 59354  43.0043 209.9059 0001708 260.9540  99.1119 15.27602197 91929",
    "COMMENT": "Grouped by shell and plane from TLE"
  },
  {
    "OBJECT_NAME": "STARLINK-31416",
    "OBJECT_ID": "24060H",
    "EPOCH": "2025-11-11T02:06:44.608320",
    "MEAN_MOTION": 15.27586293,
    "ECCENTRICITY": 0.0001115,
    "INCLINATION": 43.0016,
    "RA_OF_ASC_NODE": 209.7101,
    "ARG_OF_PERICENTER": 297.8277,
    "MEAN_ANOMALY": 62.2461,
    "EPHEMERIS_TYPE": 0,
    "CLASSIFICATION_TYPE": "U",
    "NORAD_CAT_ID": 59355,
    "ELEMENT_SET_NO": 999,
    "REV_AT_EPOCH": 9192,
    "BSTAR": 0.00013197,
    "MEAN_MOTION_DOT": 3.372e-05,
    "MEAN_MOTION_DDOT": 0.0,
    "TLE_LINE1": "1 59355U 24060H   25315.08801630  .00003372  00000+0  13197-3 0  9999",
    "TLE_LINE2": "2 59355  43.0016 209.7101 0001115 297.8277  62.2461 15.27586293 91923",
    "COMMENT": "Grouped by shell and plane from TLE"
  },
  {
    "OBJECT_NAME": "STARLINK-31552",
    "OBJECT_ID": "24060J",
    "EPOCH": "2025-11-11T02:38:12.361920",
    "MEAN_MOTION": 15.27597727,
    "ECCENTRICITY": 9.14e-05,
    "INCLINATION": 43.0003,
    "RA_OF_ASC_NODE": 209.8946,
    "ARG_OF_PERICENTER": 275.9947,
    "MEAN_ANOMALY": 84.08,
    "EPHEMERIS_TYPE": 0,
    "CLASSIFICATION_TYPE": "U",
    "NORAD_CAT_ID": 59356,
    "ELEMENT_SET_NO": 999,
    "REV_AT_EPOCH": 9192,
    "BSTAR": 0.00029620000000000004,
    "MEAN_MOTION_DOT": 7.902e-05,
    "MEAN_MOTION_DDOT": 0.0,
    "TLE_LINE1": "1 59356U 24060J   25315.10986530  .00007902  00000+0  29620-3 0  9997",
    "TLE_LINE2": "2 59356  43.0003 209.8946 0000914 275.9947  84.0800 15.27597727 91928",
    "COMMENT": "Grouped by shell and plane from TLE"
  },
  {
    "OBJECT_NAME": "STARLINK-31557",
    "OBJECT_ID": "24060K",
    "EPOCH": "2025-11-11T02:29:25.114560",
    "MEAN_MOTION": 15.2760085,
    "ECCENTRICITY": 0.0001953,
    "INCLINATION": 43.0012,
    "RA_OF_ASC_NODE": 205.4709,
    "ARG_OF_PERICENTER": 253.5052,
    "MEAN_ANOMALY": 106.5585,
    "EPHEMERIS_TYPE": 0,
    "CLASSIFICATION_TYPE": "U",
    "NORAD_CAT_ID": 59357,
    "ELEMENT_SET_NO": 999,
    "REV_AT_EPOCH": 9197,
    "BSTAR": 0.0001848,
    "MEAN_MOTION_DOT": 4.83e-05,
    "MEAN_MOTION_DDOT": 0.0,
    "TLE_LINE1": "1 59357U 24060K   25315.10376290  .00004830  00000+0  18480-3 0  9993",
    "TLE_LINE2": "2 59357  43.0012 205.4709 0001953 253.5052 106.5585 15.27600850 91978",
    "COMMENT": "Grouped by shell and plane from TLE"
  },
  {
    "OBJECT_NAME": "STARLINK-31559",
    "OBJECT_ID": "24060L",
    "EPOCH": "2025-11-11T03:20:32.846784",
    "MEAN_MOTION": 15.27597174,
    "ECCENTRICITY": 9.78e-05,
    "INCLINATION": 43.0008,
    "RA_OF_ASC_NODE": 209.2294,
    "ARG_OF_PERICENTER": 269.7494,
    "MEAN_ANOMALY": 90.3245,
    "EPHEMERIS_TYPE": 0,
    "CLASSIFICATION_TYPE": "U",
    "NORAD_CAT_ID": 59358,
    "ELEMENT_SET_NO": 999,
    "REV_AT_EPOCH": 9193,
    "BSTAR": 0.00031977,
    "MEAN_MOTION_DOT": 8.552e-05,
    "MEAN_MOTION_DDOT": 0.0,
    "TLE_LINE1": "1 59358U 24060L   25315.13926906  .00008552  00000+0  31977-3 0  9993",
    "TLE_LINE2": "2 59358  43.0008 209.2294 0000978 269.7494  90.3245 15.27597174 91933",
    "COMMENT": "Grouped by shell and plane from TLE"
  },
  {
    "OBJECT_NAME": "STARLINK-31501",
    "OBJECT_ID": "24060M",
    "EPOCH": "2025-11-11T02:27:05.499072",
    "MEAN_MOTION": 15.27590129,
    "ECCENTRICITY": 3.94e-05,
    "INCLINATION": 43.0015,
    "RA_OF_ASC_NODE": 209.8219,
    "ARG_OF_PERICENTER": 288.6743,
    "MEAN_ANOMALY": 71.4065,
    "EPHEMERIS_TYPE": 0,
    "CLASSIFICATION_TYPE": "U",
    "NORAD_CAT_ID": 59359,
    "ELEMENT_SET_NO": 999,
    "REV_AT_EPOCH": 9192,
    "BSTAR": 0.00013364,
    "MEAN_MOTION_DOT": 3.418e-05,
    "MEAN_MOTION_DDOT": 0.0,
    "TLE_LINE1": "1 59359U 24060M   25315.10214698  .00003418  00000+0  13364-3 0  9995",
    "TLE_LINE2": "2 59359  43.0015 209.8219 0000394 288.6743  71.4065 15.27590129 91926",
    "COMMENT": "Grouped by shell and plane from TLE"
  },
  {
    "OBJECT_NAME": "STARLINK-31549",
    "OBJECT_ID": "24060N",
    "EPOCH": "2025-11-11T03:03:51.816384",
    "MEAN_MOTION": 15.27605973,
    "ECCENTRICITY": 5.7e-05,
    "INCLINATION": 42.9971,
    "RA_OF_ASC_NODE": 209.1454,
    "ARG_OF_PERICENTER": 300.8538,
    "MEAN_ANOMALY": 59.2257,
    "EPHEMERIS_TYPE": 0,
    "CLASSIFICATION_TYPE": "U",
    "NORAD_CAT_ID": 59360,
    "ELEMENT_SET_NO": 999,
    "REV_AT_EPOCH": 9193,
    "BSTAR": 0.000126,
    "MEAN_MOTION_DOT": 3.21e-05,
    "MEAN_MOTION_DDOT": 0.0,
    "TLE_LINE1": "1 59360U 24060N   25315.12768306  .00003210  00000+0  12600-3 0  9991",
    "TLE_LINE2": "2 59360  42.9971 209.1454 0000570 300.8538  59.2257 15.27605973 91938",
    "COMMENT": "Grouped by shell and plane from TLE"
  },
  {
    "OBJECT_NAME": "STARLINK-31560",
    "OBJECT_ID": "24060P",
    "EPOCH": "2025-11-11T02:17:51.008064",
    "MEAN_MOTION": 15.27596913,
    "ECCENTRICITY": 8.39e-05,
    "INCLINATION": 43.0016,
    "RA_OF_ASC_NODE": 209.7678,
    "ARG_OF_PERICENTER": 256.3646,
    "MEAN_ANOMALY": 103.7112,
    "EPHEMERIS_TYPE": 0,
    "CLASSIFICATION_TYPE": "U",
    "NORAD_CAT_ID": 59361,
    "ELEMENT_SET_NO": 999,
    "REV_AT_EPOCH": 9192,
    "BSTAR": 0.00023072000000000001,
    "MEAN_MOTION_DOT": 6.095e-05,
    "MEAN_MOTION_DDOT": 0.0,
    "TLE_LINE1": "1 59361U 24060P   25315.09572926  .00006095  00000+0  23072-3 0  9998",
    "TLE_LINE2": "2 59361  43.0016 209.7678 0000839 256.3646 103.7112 15.27596913 91925",
    "COMMENT": "Grouped by shell and plane from TLE"
  }
]